SKYKRAFT-1A             
1 55054U 23001AX  26068.71064616  .00008177  00000+0  30069-3 0  9991
2 55054  97.3349 127.6290 0011277 121.5092 238.7251 15.28083228176529
STARLINK-34864          
1 65330U 25189H   26068.59686433  .00020547  00000+0  70413-3 0  9993
2 65330  53.1579 207.0961 0001080  83.5896 276.5227 15.30191136 31096
